BEIDOU 3 (C01)          
1 36287U 10001A   22187.54751370 -.00000269  00000+0  00000+0 0  9996
2 36287   1.9130  48.4029 0003909  30.0030 183.6270  1.00270370 45709
BEIDOU 5 (C06)          
1 36828U 10036A   22187.36992559 -.00000048  00000+0  00000+0 0  9996
2 36828  54.1979 176.0543 0030897 190.7574 156.3411  1.00293823 43769
BEIDOU 6 (C04)          
1 37210U 10057A   22187.34776542 -.00000100  00000+0  00000+0 0  9994
2 37210   0.8841  49.4847 0003970 128.1041  31.9125  1.00271185 42820
BEIDOU 7 (C07)          
1 37256U 10068A   22186.73382565 -.00000196  00000+0  00000+0 0  9991
2 37256  50.1677 289.4331 0022837 197.1300 165.5148  1.00301405 42330
BEIDOU 8 (C08)          
1 37384U 11013A   22186.57479919 -.00000176  00000+0  00000+0 0  9994
2 37384  60.3152  54.0779 0018371 182.4781 358.4901  1.00251884 41203
BEIDOU 9 (C09)          
1 37763U 11038A   22187.37053785 -.00000007  00000+0  00000+0 0  9993
2 37763  54.4793 178.5497 0098730 228.3207 106.5038  1.00275346 40186
BEIDOU 10 (C10)         
1 37948U 11073A   22187.59782699 -.00000157  00000+0  00000+0 0  9990
2 37948  50.2951 289.0613 0084173 217.9125  87.1361  1.00290006 38942
BEIDOU 11 (C05)         
1 38091U 12008A   22187.47618939  .00000070  00000+0  00000+0 0  9994
2 38091   1.6044  68.1944 0014328 339.4271 106.8686  1.00270423 38024
BEIDOU 12 (C11)         
1 38250U 12018A   22187.54509008 -.00000065  00000+0  00000+0 0  9991
2 38250  56.6900 352.9296 0020180 251.9813 158.7704  1.86234394 69447
BEIDOU 13 (C12)         
1 38251U 12018B   22186.59546147 -.00000067  00000+0  00000+0 0  9993
2 38251  56.6069 352.2834 0011220 251.8515 286.4262  1.86234412 69425
BEIDOU 15 (C14)         
1 38775U 12050B   22187.33724772  .00000005  00000+0  00000+0 0  9996
2 38775  55.4102 111.0496 0015010 324.6846 187.1169  1.86231356 66810
BEIDOU 16 (C02)         
1 38953U 12059A   22187.39281299 -.00000164  00000+0  00000+0 0  9998
2 38953   2.0333  84.3215 0011020 304.5171 120.9630  1.00269796 35457
BEIDOU 17 (C31)         
1 40549U 15019A   22187.32132656 -.00000173  00000+0  00000+0 0  9996
2 40549  51.8554 312.5374 0037172 193.7173 346.9681  1.00293182 26627
BEIDOU 18 (C57)         
1 40748U 15037A   22187.30527403 -.00000068  00000+0  00000+0 0  9996
2 40748  55.8609 351.1154 0004641  49.5511 154.0103  1.86233296 47261
BEIDOU 19 (C58)         
1 40749U 15037B   22187.33559834 -.00000068  00000+0  00000+0 0  9993
2 40749  55.8602 351.1039 0003512   0.9454 357.3872  1.86232084 47254
BEIDOU 20 (C18)         
1 40938U 15053A   22187.19804959 -.00000133  00000+0  00000+0 0  9999
2 40938  51.4704 275.6616 0045438 197.3488 337.4912  1.00288674 24892
BEIDOU IGSO-6 (C13)     
1 41434U 16021A   22187.29892912 -.00000163  00000+0  00000+0 0  9997
2 41434  58.1267  52.6372 0043509 216.6675 218.7030  1.00279742 23026
BEIDOU-2 G7 (C03)       
1 41586U 16037A   22187.37341080 -.00000342  00000+0  00000+0 0  9995
2 41586   1.4138  65.8504 0008971   1.0339 102.4350  1.00272033 22335
BEIDOU-3 M1 (C19)       
1 43001U 17069A   22186.68192498  .00000008  00000+0  00000+0 0  9993
2 43001  55.5637 111.0745 0011330 296.1162 292.6066  1.86231735 31736
BEIDOU-3 M2 (C20)       
1 43002U 17069B   22187.47544632  .00000004  00000+0  00000+0 0  9999
2 43002  55.5640 111.0832 0009778 315.8050 127.9420  1.86231341 31744
BEIDOU-3 M3 (C27)       
1 43107U 18003A   22187.45193940 -.00000069  00000+0  00000+0 0  9996
2 43107  55.3112 352.0190 0005621  62.9991 171.1362  1.86232474 30500
BEIDOU-3 M4 (C28)       
1 43108U 18003B   22187.60195646 -.00000069  00000+0  00000+0 0  9999
2 43108  55.3032 352.0033 0001783 239.4765 139.0227  1.86230917 30517
BEIDOU-3 M5 (C21)       
1 43207U 18018A   22186.40850647  .00000009  00000+0  00000+0 0  9994
2 43207  55.5231 111.1977 0007087 336.5695  23.4020  1.86231650 29874
BEIDOU-3 M6 (C22)       
1 43208U 18018B   22187.01210515  .00000007  00000+0  00000+0 0  9995
2 43208  55.5224 111.1817 0009088 308.1088  51.8132  1.86231639 29881
BEIDOU-3 M7 (C29)       
1 43245U 18029A   22186.69417633 -.00000070  00000+0  00000+0 0  9992
2 43245  55.2239 349.8124 0001087  89.6118 266.9125  1.86232663 29027
BEIDOU-3 M8 (C30)       
1 43246U 18029B   22186.67427628 -.00000070  00000+0  10000-3 0  9991
2 43246  55.2200 349.8432 0004030  16.3240  13.4037  1.86232848 29024
BEIDOU IGSO-7 (C16)     
1 43539U 18057A   22187.32581220 -.00000049  00000+0  00000+0 0  9990
2 43539  55.0792 175.5344 0049704 227.9761 107.0018  1.00252553 14691
BEIDOU-3 M9 (C23)       
1 43581U 18062A   22187.36379420  .00000070  00000+0  00000+0 0  9997
2 43581  54.2705 231.4381 0005178 266.9098  76.1838  1.86231956 26775
BEIDOU-3 M10 (C24)      
1 43582U 18062B   22187.32102911  .00000069  00000+0  00000+0 0  9991
2 43582  54.2704 231.4289 0004123 345.2950  60.9127  1.86232177 26788
BEIDOU-3 M11 (C25)      
1 43602U 18067A   22187.30919022  .00000072  00000+0  00000+0 0  9990
2 43602  54.3525 230.0453 0006554   2.8217  76.8415  1.86231710 26275
BEIDOU-3 M12 (C26)      
1 43603U 18067B   22187.54236296  .00000074  00000+0  00000+0 0  9994
2 43603  54.3496 230.0039 0003868 345.4969 160.8713  1.86231680 26291
BEIDOU-3 M13 (C32)      
1 43622U 18072A   22187.50273565  .00000003  00000+0  00000+0 0  9999
2 43622  55.4903 110.7141 0007970 293.5347 215.4884  1.86231826 25800
BEIDOU-3 M14 (C33)      
1 43623U 18072B   22187.29177081  .00000004  00000+0  00000+0 0  9993
2 43623  55.4918 110.7133 0006177 316.4356 141.3810  1.86231823 25804
BEIDOU-3 M15 (C34)      
1 43647U 18078A   22186.76125142 -.00000070  00000+0  10000-3 0  9996
2 43647  55.1197 349.9674 0006482  16.0321 341.6593  1.86232782 25297
BEIDOU-3 M16 (C35)      
1 43648U 18078B   22186.63903530 -.00000070  00000+0  00000+0 0  9993
2 43648  55.1136 349.9775 0004488  33.0933 150.4250  1.86232596 25317
BEIDOU-3 G1 (C59)       
1 43683U 18085A   22187.47565885 -.00000265  00000+0  00000+0 0  9996
2 43683   0.9075 162.8681 0003891 358.3391  74.4489  1.00275994 13605
BEIDOU-3 M17 (C36)      
1 43706U 18093A   22186.51658446  .00000062  00000+0  00000+0 0  9995
2 43706  54.3531 231.3531 0010944 271.4411  88.5114  1.86231993 24677
BEIDOU-3 M18 (C37)      
1 43707U 18093B   22187.46276943  .00000071  00000+0  00000+0 0  9999
2 43707  54.3529 231.3114 0008529 294.1245  71.4346  1.86232223 24681
BEIDOU-3 IGSO-1 (C38)   
1 44204U 19023A   22187.54236889 -.00000219  00000+0  00000+0 0  9995
2 44204  56.5864  52.7667 0019148 197.5829 345.3412  1.00252182 11901
BEIDOU-2 G8             
1 44231U 19027A   22187.60441163 -.00000235  00000+0  00000+0 0  9997
2 44231   0.9071  76.9368 0004982 110.8886  98.8379  1.00269050 11613
BEIDOU-3 IGSO-2 (C39)   
1 44337U 19035A   22187.37341080 -.00000063  00000+0  00000+0 0  9993
2 44337  55.1250 171.5553 0025926 194.8015 168.5059  1.00299470 11244
BEIDOU-3 M23 (C45)      
1 44542U 19061A   22187.45969980  .00000071  00000+0  00000+0 0  9992
2 44542  54.5782 231.4677 0007811 327.2172 348.0555  1.86231323 18933
BEIDOU-3 M24 (C46)      
1 44543U 19061B   22186.67101355  .00000064  00000+0  00000+0 0  9992
2 44543  54.5765 231.4623 0005481 310.0539 107.7711  1.86231667 18928
BEIDOU-3 IGSO-3         
1 44709U 19073A   22187.46691624 -.00000196  00000+0  10000-3 0  9992
2 44709  57.2338 296.1893 0023381 176.5873  95.6280  1.00250820  9980
BEIDOU-3 M21            
1 44793U 19078A   22187.36855080 -.00000070  00000+0  10000-3 0  9998
2 44793  54.9666 349.9667 0006497  22.8876 335.8314  1.86232253 17791
BEIDOU-3 M22            
1 44794U 19078B   22187.49745895 -.00000070  00000+0  00000+0 0  9990
2 44794  54.9401 349.9526 0004472  23.5436 333.3060  1.86232778 17797
BEIDOU-3 M19            
1 44864U 19090A   22187.39885021  .00000004  00000+0  00000+0 0  9993
2 44864  55.4249 110.9281 0017901 274.3199 210.8631  1.86231939 17384
BEIDOU-3 M20            
1 44865U 19090B   22187.33255432  .00000004  00000+0  00000+0 0  9995
2 44865  55.4263 110.9622 0016318 287.8497 242.7484  1.86231883 17356
BEIDOU-3 G2             
1 45344U 20017A   22187.39202819 -.00000129  00000+0  00000+0 0  9995
2 45344   2.0542 352.9515 0004879 119.1003  33.5036  1.00271052  8802
BEIDOU-3 G3             
1 45807U 20040A   22187.37966122 -.00000341  00000+0  00000+0 0  9993
2 45807   1.4001 303.6952 0006468 334.9131 252.8369  1.00278374  7619
